CCSDS_OMM_VERS = 2.0
CREATION_DATE  = 
ORIGINATOR     = 

OBJECT_NAME    = DRAGONFLY
OBJECT_ID      = 1998-067XH
CENTER_NAME    = EARTH
REF_FRAME      = TEME
TIME_SYSTEM    = UTC
MEAN_ELEMENT_THEORY = SGP/SGP4

EPOCH          = 2026-01-16T05:11:34.019808
MEAN_MOTION    = 15.90167081
ECCENTRICITY   = .00079477
INCLINATION    = 51.6201
RA_OF_ASC_NODE = 317.1747
ARG_OF_PERICENTER = 121.1972
MEAN_ANOMALY   = 238.9814

EPHEMERIS_TYPE = 0
CLASSIFICATION_TYPE = U
NORAD_CAT_ID   = 65729
ELEMENT_SET_NO = 999
REV_AT_EPOCH   = 1861
BSTAR          = .11760474E-2
MEAN_MOTION_DOT = .362083E-2
MEAN_MOTION_DDOT = .59770704E-4

CCSDS_OMM_VERS = 2.0
CREATION_DATE  = 
ORIGINATOR     = 

OBJECT_NAME    = 1998-067XK
OBJECT_ID      = 1998-067XK
CENTER_NAME    = EARTH
REF_FRAME      = TEME
TIME_SYSTEM    = UTC
MEAN_ELEMENT_THEORY = SGP/SGP4

EPOCH          = 2026-01-16T05:47:03.855840
MEAN_MOTION    = 15.74078898
ECCENTRICITY   = .0004771
INCLINATION    = 51.6285
RA_OF_ASC_NODE = 321.1647
ARG_OF_PERICENTER = 90.1861
MEAN_ANOMALY   = 269.9685

EPHEMERIS_TYPE = 0
CLASSIFICATION_TYPE = U
NORAD_CAT_ID   = 65731
ELEMENT_SET_NO = 999
REV_AT_EPOCH   = 1856
BSTAR          = .79470214E-3
MEAN_MOTION_DOT = .117081E-2
MEAN_MOTION_DDOT = 0

CCSDS_OMM_VERS = 2.0
CREATION_DATE  = 
ORIGINATOR     = 

OBJECT_NAME    = RSP-03
OBJECT_ID      = 1998-067XL
CENTER_NAME    = EARTH
REF_FRAME      = TEME
TIME_SYSTEM    = UTC
MEAN_ELEMENT_THEORY = SGP/SGP4

EPOCH          = 2026-01-16T02:04:41.327616
MEAN_MOTION    = 15.80551154
ECCENTRICITY   = .0005848
INCLINATION    = 51.6250
RA_OF_ASC_NODE = 320.1030
ARG_OF_PERICENTER = 100.3486
MEAN_ANOMALY   = 259.8175

EPHEMERIS_TYPE = 0
CLASSIFICATION_TYPE = U
NORAD_CAT_ID   = 65732
ELEMENT_SET_NO = 999
REV_AT_EPOCH   = 1857
BSTAR          = .94425159E-3
MEAN_MOTION_DOT = .187469E-2
MEAN_MOTION_DDOT = 0

CCSDS_OMM_VERS = 2.0
CREATION_DATE  = 
ORIGINATOR     = 

OBJECT_NAME    = GHS-01
OBJECT_ID      = 1998-067XM
CENTER_NAME    = EARTH
REF_FRAME      = TEME
TIME_SYSTEM    = UTC
MEAN_ELEMENT_THEORY = SGP/SGP4

EPOCH          = 2026-01-16T02:15:15.628896
MEAN_MOTION    = 16.05127315
ECCENTRICITY   = .00079231
INCLINATION    = 51.6208
RA_OF_ASC_NODE = 315.5888
ARG_OF_PERICENTER = 141.6481
MEAN_ANOMALY   = 218.5095

EPHEMERIS_TYPE = 0
CLASSIFICATION_TYPE = U
NORAD_CAT_ID   = 65733
ELEMENT_SET_NO = 999
REV_AT_EPOCH   = 1863
BSTAR          = .14093799E-2
MEAN_MOTION_DOT = .999688E-2
MEAN_MOTION_DDOT = .54325968E-3

CCSDS_OMM_VERS = 2.0
CREATION_DATE  = 
ORIGINATOR     = 

OBJECT_NAME    = YOTSUBA-KULOVER
OBJECT_ID      = 1998-067XN
CENTER_NAME    = EARTH
REF_FRAME      = TEME
TIME_SYSTEM    = UTC
MEAN_ELEMENT_THEORY = SGP/SGP4

EPOCH          = 2026-01-15T22:31:37.441920
MEAN_MOTION    = 15.64983829
ECCENTRICITY   = .00041189
INCLINATION    = 51.6289
RA_OF_ASC_NODE = 327.4101
ARG_OF_PERICENTER = 109.4425
MEAN_ANOMALY   = 250.7016

EPHEMERIS_TYPE = 0
CLASSIFICATION_TYPE = U
NORAD_CAT_ID   = 65941
ELEMENT_SET_NO = 999
REV_AT_EPOCH   = 1520
BSTAR          = .65884403E-3
MEAN_MOTION_DOT = .65968E-3
MEAN_MOTION_DDOT = 0

CCSDS_OMM_VERS = 2.0
CREATION_DATE  = 
ORIGINATOR     = 

OBJECT_NAME    = BOTAN
OBJECT_ID      = 1998-067XP
CENTER_NAME    = EARTH
REF_FRAME      = TEME
TIME_SYSTEM    = UTC
MEAN_ELEMENT_THEORY = SGP/SGP4

EPOCH          = 2026-01-16T02:07:51.475008
MEAN_MOTION    = 15.72046667
ECCENTRICITY   = .00048597
INCLINATION    = 51.6266
RA_OF_ASC_NODE = 324.6496
ARG_OF_PERICENTER = 111.6038
MEAN_ANOMALY   = 248.5479

EPHEMERIS_TYPE = 0
CLASSIFICATION_TYPE = U
NORAD_CAT_ID   = 65942
ELEMENT_SET_NO = 999
REV_AT_EPOCH   = 1525
BSTAR          = .93501099E-3
MEAN_MOTION_DOT = .126501E-2
MEAN_MOTION_DDOT = 0

CCSDS_OMM_VERS = 2.0
CREATION_DATE  = 
ORIGINATOR     = 

OBJECT_NAME    = E-KAGAKU-1
OBJECT_ID      = 1998-067XQ
CENTER_NAME    = EARTH
REF_FRAME      = TEME
TIME_SYSTEM    = UTC
MEAN_ELEMENT_THEORY = SGP/SGP4

EPOCH          = 2026-01-16T03:07:21.907488
MEAN_MOTION    = 15.64989487
ECCENTRICITY   = .00026622
INCLINATION    = 51.6301
RA_OF_ASC_NODE = 326.4450
ARG_OF_PERICENTER = 114.7867
MEAN_ANOMALY   = 245.3406

EPHEMERIS_TYPE = 0
CLASSIFICATION_TYPE = U
NORAD_CAT_ID   = 65943
ELEMENT_SET_NO = 999
REV_AT_EPOCH   = 1523
BSTAR          = .65493437E-3
MEAN_MOTION_DOT = .65572E-3
MEAN_MOTION_DDOT = 0

CCSDS_OMM_VERS = 2.0
CREATION_DATE  = 
ORIGINATOR     = 

OBJECT_NAME    = HRC MONOBLOCK CAMERA
OBJECT_ID      = 1998-067XR
CENTER_NAME    = EARTH
REF_FRAME      = TEME
TIME_SYSTEM    = UTC
MEAN_ELEMENT_THEORY = SGP/SGP4

EPOCH          = 2026-01-16T06:44:26.199456
MEAN_MOTION    = 15.56736272
ECCENTRICITY   = .00011104
INCLINATION    = 51.6308
RA_OF_ASC_NODE = 328.9464
ARG_OF_PERICENTER = 9.0052
MEAN_ANOMALY   = 351.0959

EPHEMERIS_TYPE = 0
CLASSIFICATION_TYPE = U
NORAD_CAT_ID   = 66052
ELEMENT_SET_NO = 999
REV_AT_EPOCH   = 1421
BSTAR          = .43037913E-3
MEAN_MOTION_DOT = .30992E-3
MEAN_MOTION_DDOT = 0

CCSDS_OMM_VERS = 2.0
CREATION_DATE  = 
ORIGINATOR     = 

OBJECT_NAME    = HTV-X1
OBJECT_ID      = 2025-241A
CENTER_NAME    = EARTH
REF_FRAME      = TEME
TIME_SYSTEM    = UTC
MEAN_ELEMENT_THEORY = SGP/SGP4

EPOCH          = 2026-01-16T05:46:29.352864
MEAN_MOTION    = 15.49322747
ECCENTRICITY   = .00077822
INCLINATION    = 51.6334
RA_OF_ASC_NODE = 331.6741
ARG_OF_PERICENTER = 24.2843
MEAN_ANOMALY   = 335.8511

EPHEMERIS_TYPE = 0
CLASSIFICATION_TYPE = U
NORAD_CAT_ID   = 66174
ELEMENT_SET_NO = 999
REV_AT_EPOCH   = 51
BSTAR          = .17373734E-3
MEAN_MOTION_DOT = .9246E-4
MEAN_MOTION_DDOT = 0

CCSDS_OMM_VERS = 2.0
CREATION_DATE  = 
ORIGINATOR     = 

OBJECT_NAME    = SZ-21 MODULE
OBJECT_ID      = 2025-246C
CENTER_NAME    = EARTH
REF_FRAME      = TEME
TIME_SYSTEM    = UTC
MEAN_ELEMENT_THEORY = SGP/SGP4

EPOCH          = 2026-01-15T18:38:37.661856
MEAN_MOTION    = 15.64536487
ECCENTRICITY   = .00021606
INCLINATION    = 41.4742
RA_OF_ASC_NODE = 168.0969
ARG_OF_PERICENTER = 179.3980
MEAN_ANOMALY   = 180.6863

EPHEMERIS_TYPE = 0
CLASSIFICATION_TYPE = U
NORAD_CAT_ID   = 66515
ELEMENT_SET_NO = 999
REV_AT_EPOCH   = 977
BSTAR          = .21926329E-3
MEAN_MOTION_DOT = .21472E-3
MEAN_MOTION_DDOT = 0

CCSDS_OMM_VERS = 2.0
CREATION_DATE  = 
ORIGINATOR     = 

OBJECT_NAME    = SHENZHOU-22
OBJECT_ID      = 2025-272A
CENTER_NAME    = EARTH
REF_FRAME      = TEME
TIME_SYSTEM    = UTC
MEAN_ELEMENT_THEORY = SGP/SGP4

EPOCH          = 2026-01-16T06:53:41.614944
MEAN_MOTION    = 15.60551466
ECCENTRICITY   = .00112894
INCLINATION    = 41.4652
RA_OF_ASC_NODE = 166.7400
ARG_OF_PERICENTER = 295.3832
MEAN_ANOMALY   = 64.5837

EPHEMERIS_TYPE = 0
CLASSIFICATION_TYPE = U
NORAD_CAT_ID   = 66645
ELEMENT_SET_NO = 999
REV_AT_EPOCH   = 26764
BSTAR          = .1645935E-3
MEAN_MOTION_DOT = .13704E-3
MEAN_MOTION_DDOT = 0

CCSDS_OMM_VERS = 2.0
CREATION_DATE  = 
ORIGINATOR     = 

OBJECT_NAME    = SOYUZ-MS 28
OBJECT_ID      = 2025-275A
CENTER_NAME    = EARTH
REF_FRAME      = TEME
TIME_SYSTEM    = UTC
MEAN_ELEMENT_THEORY = SGP/SGP4

EPOCH          = 2026-01-16T05:46:29.352864
MEAN_MOTION    = 15.49322747
ECCENTRICITY   = .00077822
INCLINATION    = 51.6334
RA_OF_ASC_NODE = 331.6741
ARG_OF_PERICENTER = 24.2843
MEAN_ANOMALY   = 335.8511

EPHEMERIS_TYPE = 0
CLASSIFICATION_TYPE = U
NORAD_CAT_ID   = 66664
ELEMENT_SET_NO = 999
REV_AT_EPOCH   = 128
BSTAR          = .17373734E-3
MEAN_MOTION_DOT = .9246E-4
MEAN_MOTION_DDOT = 0

