DRAGONFLY               
1 65729U 98067XH  26016.21636597  .00362083  59771-4  11760-2 0  9995
2 65729  51.6201 317.1747 0007947 121.1972 238.9814 15.90167081 18615
1998-067XK              
1 65731U 98067XK  26016.24101685  .00117081  00000+0  79470-3 0  9991
2 65731  51.6285 321.1647 0004771  90.1861 269.9685 15.74078898 18561
RSP-03                  
1 65732U 98067XL  26016.08658944  .00187469  00000+0  94425-3 0  9993
2 65732  51.6250 320.1030 0005848 100.3486 259.8175 15.80551154 18573
GHS-01                  
1 65733U 98067XM  26016.09393089  .00999688  54326-3  14094-2 0  9992
2 65733  51.6208 315.5888 0007923 141.6481 218.5095 16.05127315 18631
YOTSUBA-KULOVER         
1 65941U 98067XN  26015.93862780  .00065968  00000+0  65884-3 0  9999
2 65941  51.6289 327.4101 0004118 109.4425 250.7016 15.64983829 15209
BOTAN                   
1 65942U 98067XP  26016.08879022  .00126501  00000+0  93501-3 0  9992
2 65942  51.6266 324.6496 0004859 111.6038 248.5479 15.72046667 15250
E-KAGAKU-1              
1 65943U 98067XQ  26016.13011467  .00065572  00000+0  65493-3 0  9999
2 65943  51.6301 326.4450 0002662 114.7867 245.3406 15.64989487 15235
HRC MONOBLOCK CAMERA    
1 66052U 98067XR  26016.28085879  .00030992  00000+0  43038-3 0  9994
2 66052  51.6308 328.9464 0001110   9.0052 351.0959 15.56736272 14213
HTV-X1                  
1 66174U 25241A   26016.24061751  .00009246  00000+0  17374-3 0  9994
2 66174  51.6334 331.6741 0007782  24.2843 335.8511 15.49322747   516
SZ-21 MODULE            
1 66515U 25246C   26015.77682479  .00021472  00000+0  21926-3 0  9994
2 66515  41.4742 168.0969 0002160 179.3980 180.6863 15.64536487  9776
SHENZHOU-22             
1 66645U 25272A   26016.28728721  .00013704  00000+0  16459-3 0  9999
2 66645  41.4652 166.7400 0011289 295.3832  64.5837 15.60551466267645
SOYUZ-MS 28             
1 66664U 25275A   26016.24061751  .00009246  00000+0  17374-3 0  9995
2 66664  51.6334 331.6741 0007782  24.2843 335.8511 15.49322747  1285
